STARLINK-11723 [DTC]    
1 64075U 25107M   26053.78963465  .00326095  00000+0  24313-2 0  9990
2 64075  42.9993 188.1329 0002127 298.5082  61.5572 15.70987558 44951
STARLINK-11715 [DTC]    
1 64076U 25107N   26053.76840878  .00104941  00000+0  80913-3 0  9994
2 64076  43.0005 187.9646 0002277 286.8853  73.1765 15.70894717 44956
STARLINK-34201          
1 64077U 25107P   26053.69305464  .00026939  00000+0  98421-3 0  9997
2 64077  42.9955 286.5283 0000791  48.6606 311.4314 15.27602738 42735
STARLINK-34190          
1 64078U 25107Q   26053.01348731  .00019452  00000+0  71396-3 0  9992
2 64078  42.9986 290.0235 0001347 261.8340  98.2359 15.27605362 43724
STARLINK-34168          
1 64079U 25107R   26053.64936480  .00031935  00000+0  11641-2 0  9992
2 64079  42.9954 286.2000 0001287  11.2328 348.8552 15.27606515 43824
STARLINK-34098          
1 64080U 25107S   26053.65706949  .00025848  00000+0  94460-3 0  9997
2 64080  42.9985 286.2491 0001058 261.0629  99.0103 15.27612328 43825
STARLINK-34180          
1 64081U 25107T   26053.94045107  .00030893  00000+0  11263-2 0  9997
2 64081  43.0006 284.9398 0000919 251.2916 108.7836 15.27613080 43869
STARLINK-34171          
1 64082U 25107U   26053.90705097  .00024815  00000+0  90753-3 0  9994
2 64082  43.0010 284.6853 0001477 261.4707  98.5977 15.27606450 43864
STARLINK-34126          
1 64083U 25107V   26053.68918003  .00027469  00000+0  10022-2 0  9991
2 64083  43.0002 286.4956 0001173 280.6464  79.4255 15.27639127 42735
STARLINK-34157          
1 64084U 25107W   26053.65450490  .00024328  00000+0  89039-3 0  9996
2 64084  42.9974 286.2307 0000694 303.3427  56.7358 15.27591018 43806
STARLINK-34140          
1 64085U 25107X   26053.93660689  .00022399  00000+0  82057-3 0  9990
2 64085  42.9981 284.9060 0000969 250.1559 109.9188 15.27597963 43847
STARLINK-34132          
1 64086U 25107Y   26053.94688614  .00024408  00000+0  89290-3 0  9999
2 64086  43.0008 284.9853 0000920 276.9740  83.1007 15.27603975 43838
2025-108A               
1 64087U 25108A   26053.93398525  .00006654  00000+0  36040-3 0  9997
2 64087  97.4858 130.3887 0002271   7.6697 352.4570 15.14944103 42010
2025-108B               
1 64088U 25108B   26053.93254310  .00011480  00000+0  56032-3 0  9997
2 64088  97.4816 131.0126 0013105  52.1689 308.0729 15.18369244 42028
2025-108C               
1 64089U 25108C   26053.93817231  .00007046  00000+0  39358-3 0  9990
2 64089  97.4781 130.2729 0014878  46.4838 313.7628 15.13728311 41984
2025-108D               
1 64090U 25108D   26053.89826446  .00007539  00000+0  37832-3 0  9997
2 64090  97.4777 130.9276 0013329  48.1348 312.1021 15.17520251 42023
2025-108E               
1 64091U 25108E   26053.95401226  .00018500  00000+0  83040-3 0  9992
2 64091  97.4761 131.4334 0013318  46.9621 313.2727 15.21152819 42061
2025-108F               
1 64092U 25108F   26053.93126274  .00022912  00000+0  97086-3 0  9995
2 64092  97.4780 131.7745 0012614  50.0354 310.1989 15.23081358 42088
COSMOS 2588             
1 64095U 25109A   26053.30493970  .00010525  00000+0  37741-3 0  9999
2 64095  72.9701 108.6344 0004192 335.2788  24.8205 15.28819135 42055
STARLINK-34178          
1 64096U 25110A   26053.82575921  .00022639  00000+0  77469-3 0  9996
2 64096  53.1597  96.0236 0001463 104.3666 255.7497 15.30176871 43604
STARLINK-34174          
1 64097U 25110B   26053.81943347  .00022448  00000+0  76760-3 0  9998
2 64097  53.1590  95.9891 0001501  91.4404 268.6769 15.30206981 43603
STARLINK-34146          
1 64098U 25110C   26053.81310019  .00023443  00000+0  80101-3 0  9993
2 64098  53.1574  95.9501 0001261  88.4728 271.6417 15.30205228 43609
STARLINK-34074          
1 64099U 25110D   26053.83102566  .00025846  00000+0  88105-3 0  9993
2 64099  53.1618  96.0613 0002372  72.6111 287.5149 15.30223823 43609
STARLINK-34082          
1 64100U 25110E   26053.82895576  .00050051  00000+0  16910-2 0  9995
2 64100  53.1588  96.0506 0002327  47.6726 312.4472 15.30192176 43606
STARLINK-34072          
1 64101U 25110F   26052.64694386  .00024628  00000+0  83997-3 0  9992
2 64101  53.1597 101.4696 0001781  71.1502 288.9692 15.30235070 43427
STARLINK-34104          
1 64102U 25110G   26053.81627083  .00023269  00000+0  79474-3 0  9998
2 64102  53.1588  95.9672 0001570  91.5363 268.5818 15.30223019 43600
STARLINK-34179          
1 64103U 25110H   26053.83419704  .00005778  00000+0  20689-3 0  9999
2 64103  53.1604  96.0791 0000324  38.7891 321.3133 15.30222042 43602
STARLINK-34176          
1 64104U 25110J   26053.10941340  .00017931  00000+0  61595-3 0  9991
2 64104  53.1592  99.3776 0001727  83.0948 277.0249 15.30206205 43497
STARLINK-33949          
1 64105U 25110K   26053.62876506  .00026014  00000+0  88787-3 0  9994
2 64105  53.1576  96.9319 0001613  77.8915 282.2267 15.30181826 43573
STARLINK-33970          
1 64106U 25110L   26053.81520940  .00017594  00000+0  60454-3 0  9998
2 64106  53.1581  95.9580 0001284  89.3866 270.7282 15.30211625 43600
STARLINK-33912          
1 64107U 25110M   26053.54973057  .00038348  00000+0  12997-2 0  9998
2 64107  53.1571  97.1479 0001109  95.1949 264.9179 15.30213652 43561
STARLINK-34156          
1 64108U 25110N   26053.60554992  .00027368  00000+0  93263-3 0  9995
2 64108  53.1564  96.7860 0001199  89.4586 270.6552 15.30204463 43575
STARLINK-34124          
1 64109U 25110P   26053.80782362  .00025218  00000+0  86046-3 0  9995
2 64109  53.1570  95.9119 0001273  95.2223 264.8923 15.30207976 43600
STARLINK-34145          
1 64110U 25110Q   26053.62243023  .00022867  00000+0  78139-3 0  9994
2 64110  53.1588  96.8898 0001337  87.7346 272.3808 15.30217749 43579
STARLINK-34148          
1 64111U 25110R   26053.40643930  .00028702  00000+0  97755-3 0  9991
2 64111  53.1576  97.6724 0001323  87.6986 272.4166 15.30196183 43541
STARLINK-34136          
1 64112U 25110S   26053.80465798  .00026640  00000+0  90811-3 0  9995
2 64112  53.1573  95.8900 0001433  75.6312 284.4848 15.30208842 43600
STARLINK-33839          
1 64113U 25110T   26053.59605875  .00029422  00000+0  10005-2 0  9991
2 64113  53.1577  96.7212 0001453  81.6404 278.4762 15.30236534 43575
STARLINK-34064          
1 64114U 25110U   26053.81204533  .00024179  00000+0  82573-3 0  9997
2 64114  53.1574  95.9413 0001337  98.8336 261.2817 15.30203931 43602
STARLINK-34067          
1 64115U 25110V   26053.52440523  .00027065  00000+0  92260-3 0  9998
2 64115  53.1584  96.9846 0001949  69.7595 290.3616 15.30199101 43566
STARLINK-34080          
1 64116U 25110W   26053.39693890  .00018369  00000+0  63079-3 0  9994
2 64116  53.1578  97.6106 0001198  97.2615 262.8522 15.30199875 43537
STARLINK-34122          
1 64117U 25110X   26053.84781213  .00022404  00000+0  76598-3 0  9997
2 64117  53.1587  95.4464 0001579  86.3169 273.8012 15.30212533 43619
STARLINK-33964          
1 64118U 25110Y   26053.27264236  .00008687  00000+0  30503-3 0  9999
2 64118  53.1573  98.2570 0001038  84.0786 276.0333 15.30204165 43527
STARLINK-34160          
1 64119U 25110Z   26053.38743866  .00032430  00000+0  11027-2 0  9995
2 64119  53.1582  97.5524 0001227  63.1325 296.9801 15.30186827 43543
STARLINK-34151          
1 64120U 25110AA  26053.83526062  .00029929  00000+0  10182-2 0  9994
2 64120  53.1605  96.0808 0001469  78.0684 282.0481 15.30212424 43601
STARLINK-34189          
1 64121U 25110AB  26053.83209152  .00024549  00000+0  83724-3 0  9999
2 64121  53.1592  96.0558 0001327 101.3308 258.7842 15.30238270 43603
STARLINK-33991          
1 64122U 25110AC  26053.38322207  .00030480  00000+0  10371-2 0  9995
2 64122  53.1596  97.5262 0001263  80.7936 279.3207 15.30198282 43536
STARLINK-11727 [DTC]    
1 64123U 25111A   26053.16346458  .00184519  00000+0  14131-2 0  9998
2 64123  43.0004  67.7599 0001267 252.5664 107.5065 15.70784104 44197
STARLINK-11724 [DTC]    
1 64124U 25111B   26053.95818116  .00395251  00000+0  29118-2 0  9999
2 64124  43.0011  62.5211 0002301 228.8087 131.2583 15.71067292 44322
STARLINK-11725 [DTC]    
1 64125U 25111C   26053.71978985  .00249286  00000+0  18790-2 0  9995
2 64125  43.0017  64.1821 0001267 311.2027  48.8731 15.70960588 44287
STARLINK-11717 [DTC]    
1 64126U 25111D   26053.72510461  .00253188  00000+0  19123-2 0  9995
2 64126  43.0009  64.2233 0000859 347.5698  12.5148 15.70900274 44230
STARLINK-11721 [DTC]    
1 64127U 25111E   26053.30642970  .00139561  00000+0  10713-2 0  9995
2 64127  43.0017  66.2249 0001507 243.6570 116.4143 15.70876469 44221
STARLINK-11722 [DTC]    
1 64128U 25111F   26053.07333205  .00171470  00000+0  13111-2 0  9998
2 64128  43.0007  67.9271 0001298 266.9471  93.1249 15.70863454 44137
STARLINK-11679 [DTC]    
1 64129U 25111G   26053.05740222  .00188825  00000+0  14356-2 0  9992
2 64129  43.0028  67.7990 0002366 249.6769 110.3844 15.70943042 44182
STARLINK-11735 [DTC]    
1 64130U 25111H   26053.71448404  .00266213  00000+0  20071-2 0  9993
2 64130  43.0003  64.1365 0001260 348.4487  11.6352 15.70903168 44138
STARLINK-11720 [DTC]    
1 64131U 25111J   26053.06271138  .00216539  00000+0  16379-2 0  9992
2 64131  42.9985  67.8396 0001063 220.0652 140.0137 15.70978951 44130
STARLINK-11718 [DTC]    
1 64132U 25111K   26053.73662969  .00302111  00000+0  22590-2 0  9997
2 64132  43.0020  64.3105 0001592 271.0557  89.0129 15.70991303 44331
STARLINK-11716 [DTC]    
1 64133U 25111L   26053.73041455  .00236873  00000+0  17928-2 0  9999
2 64133  43.0013  64.2610 0000371 341.7078  18.3777 15.70899831 44338
STARLINK-11714 [DTC]    
1 64134U 25111M   26053.74622011  .00224385  00000+0  17038-2 0  9991
2 64134  42.9998  63.4953 0000363 304.7132  55.3701 15.70861859 44293
STARLINK-11712 [DTC]    
1 64135U 25111N   26053.74103336  .00231646  00000+0  17546-2 0  9998
2 64135  43.0005  64.3490 0000593  56.1223 303.9701 15.70898808 44280
